[{"OBJECT_NAME":"STARLINK-36428","OBJECT_ID":"2026-003AE","EPOCH":"2026-03-09T11:36:42.569856","MEAN_MOTION":15.27610726,"ECCENTRICITY":0.00012272,"INCLINATION":43.0027,"RA_OF_ASC_NODE":228.1124,"ARG_OF_PERICENTER":240.5697,"MEAN_ANOMALY":119.5033,"EPHEMERIS_TYPE":0,"CLASSIFICATION_TYPE":"U","NORAD_CAT_ID":67362,"ELEMENT_SET_NO":999,"REV_AT_EPOCH":879,"BSTAR":0.001354714,"MEAN_MOTION_DOT":0.0003724,"MEAN_MOTION_DDOT":0},{"OBJECT_NAME":"CZ-6A DEB","OBJECT_ID":"2023-168D","EPOCH":"2026-03-09T19:03:52.964928","MEAN_MOTION":15.28240044,"ECCENTRICITY":0.00013417,"INCLINATION":97.7802,"RA_OF_ASC_NODE":98.3362,"ARG_OF_PERICENTER":174.0661,"MEAN_ANOMALY":186.0594,"EPHEMERIS_TYPE":0,"CLASSIFICATION_TYPE":"U","NORAD_CAT_ID":58202,"ELEMENT_SET_NO":999,"REV_AT_EPOCH":12922,"BSTAR":0.0014474773,"MEAN_MOTION_DOT":0.00039923,"MEAN_MOTION_DDOT":0}]
